[{"OBJECT_NAME":"STARLINK-4299","OBJECT_ID":"2022-083AS","EPOCH":"2026-03-09T12:17:40.992864","MEAN_MOTION":15.08835916,"ECCENTRICITY":0.00012457,"INCLINATION":53.2178,"RA_OF_ASC_NODE":159.8301,"ARG_OF_PERICENTER":76.6773,"MEAN_ANOMALY":283.4358,"EPHEMERIS_TYPE":0,"CLASSIFICATION_TYPE":"U","NORAD_CAT_ID":53172,"ELEMENT_SET_NO":999,"REV_AT_EPOCH":20139,"BSTAR":4.1966994e-5,"MEAN_MOTION_DOT":3.8e-6,"MEAN_MOTION_DDOT":0},{"OBJECT_NAME":"OBJECT G","OBJECT_ID":"2026-027G","EPOCH":"2026-03-09T21:53:37.288032","MEAN_MOTION":15.12145257,"ECCENTRICITY":0.00120269,"INCLINATION":97.4906,"RA_OF_ASC_NODE":197.8999,"ARG_OF_PERICENTER":227.3105,"MEAN_ANOMALY":132.7114,"EPHEMERIS_TYPE":0,"CLASSIFICATION_TYPE":"U","NORAD_CAT_ID":67752,"ELEMENT_SET_NO":999,"REV_AT_EPOCH":389,"BSTAR":0.00053594907,"MEAN_MOTION_DOT":9.195e-5,"MEAN_MOTION_DDOT":0}]
